CCSDS_OMM_VERS = 2.0
CREATION_DATE  = 
ORIGINATOR     = 

OBJECT_NAME    = STARLINK-36950
OBJECT_ID      = 2026-039G
CENTER_NAME    = EARTH
REF_FRAME      = TEME
TIME_SYSTEM    = UTC
MEAN_ELEMENT_THEORY = SGP/SGP4

EPOCH          = 2026-03-24T22:52:03.813024
MEAN_MOTION    = 15.50581684
ECCENTRICITY   = .00017031
INCLINATION    = 42.9999
RA_OF_ASC_NODE = 323.9676
ARG_OF_PERICENTER = 262.8935
MEAN_ANOMALY   = 97.1731

EPHEMERIS_TYPE = 0
CLASSIFICATION_TYPE = U
NORAD_CAT_ID   = 67992
ELEMENT_SET_NO = 999
REV_AT_EPOCH   = 402
BSTAR          = .11201178E-2
MEAN_MOTION_DOT = .65933E-3
MEAN_MOTION_DDOT = 0

CCSDS_OMM_VERS = 2.0
CREATION_DATE  = 
ORIGINATOR     = 

OBJECT_NAME    = STARLINK-36975
OBJECT_ID      = 2026-039H
CENTER_NAME    = EARTH
REF_FRAME      = TEME
TIME_SYSTEM    = UTC
MEAN_ELEMENT_THEORY = SGP/SGP4

EPOCH          = 2026-03-24T16:30:55.202688
MEAN_MOTION    = 15.50636563
ECCENTRICITY   = .00035858
INCLINATION    = 43.0005
RA_OF_ASC_NODE = 325.4188
ARG_OF_PERICENTER = 279.8640
MEAN_ANOMALY   = 80.1816

EPHEMERIS_TYPE = 0
CLASSIFICATION_TYPE = U
NORAD_CAT_ID   = 67993
ELEMENT_SET_NO = 999
REV_AT_EPOCH   = 398
BSTAR          = .10701846E-2
MEAN_MOTION_DOT = .63089E-3
MEAN_MOTION_DDOT = 0

CCSDS_OMM_VERS = 2.0
CREATION_DATE  = 
ORIGINATOR     = 

OBJECT_NAME    = STARLINK-36993
OBJECT_ID      = 2026-039J
CENTER_NAME    = EARTH
REF_FRAME      = TEME
TIME_SYSTEM    = UTC
MEAN_ELEMENT_THEORY = SGP/SGP4

EPOCH          = 2026-03-24T22:00:00.999936
MEAN_MOTION    = 15.48435799
ECCENTRICITY   = .00011702
INCLINATION    = 42.9994
RA_OF_ASC_NODE = 323.3810
ARG_OF_PERICENTER = 269.3360
MEAN_ANOMALY   = 212.7133

EPHEMERIS_TYPE = 0
CLASSIFICATION_TYPE = U
NORAD_CAT_ID   = 67994
ELEMENT_SET_NO = 999
REV_AT_EPOCH   = 532
BSTAR          = -.39946055E-1
MEAN_MOTION_DOT = -.1945594E-1
MEAN_MOTION_DDOT = 0

CCSDS_OMM_VERS = 2.0
CREATION_DATE  = 
ORIGINATOR     = 

OBJECT_NAME    = STARLINK-36968
OBJECT_ID      = 2026-039K
CENTER_NAME    = EARTH
REF_FRAME      = TEME
TIME_SYSTEM    = UTC
MEAN_ELEMENT_THEORY = SGP/SGP4

EPOCH          = 2026-03-24T23:02:51.293760
MEAN_MOTION    = 15.50584740
ECCENTRICITY   = .00026272
INCLINATION    = 43.0015
RA_OF_ASC_NODE = 324.0259
ARG_OF_PERICENTER = 286.1101
MEAN_ANOMALY   = 73.9469

EPHEMERIS_TYPE = 0
CLASSIFICATION_TYPE = U
NORAD_CAT_ID   = 67995
ELEMENT_SET_NO = 999
REV_AT_EPOCH   = 402
BSTAR          = .1773122E-2
MEAN_MOTION_DOT = .105114E-2
MEAN_MOTION_DDOT = 0

CCSDS_OMM_VERS = 2.0
CREATION_DATE  = 
ORIGINATOR     = 

OBJECT_NAME    = STARLINK-36979
OBJECT_ID      = 2026-039L
CENTER_NAME    = EARTH
REF_FRAME      = TEME
TIME_SYSTEM    = UTC
MEAN_ELEMENT_THEORY = SGP/SGP4

EPOCH          = 2026-03-24T22:00:00.999936
MEAN_MOTION    = 15.47182883
ECCENTRICITY   = .00012384
INCLINATION    = 42.9995
RA_OF_ASC_NODE = 323.2722
ARG_OF_PERICENTER = 260.0232
MEAN_ANOMALY   = 266.1891

EPHEMERIS_TYPE = 0
CLASSIFICATION_TYPE = U
NORAD_CAT_ID   = 67996
ELEMENT_SET_NO = 999
REV_AT_EPOCH   = 532
BSTAR          = -.41500945E-1
MEAN_MOTION_DOT = -.1935322E-1
MEAN_MOTION_DDOT = 0

CCSDS_OMM_VERS = 2.0
CREATION_DATE  = 
ORIGINATOR     = 

OBJECT_NAME    = STARLINK-36994
OBJECT_ID      = 2026-039M
CENTER_NAME    = EARTH
REF_FRAME      = TEME
TIME_SYSTEM    = UTC
MEAN_ELEMENT_THEORY = SGP/SGP4

EPOCH          = 2026-03-24T22:00:00.999936
MEAN_MOTION    = 15.50531343
ECCENTRICITY   = .00019247
INCLINATION    = 43.0000
RA_OF_ASC_NODE = 323.6226
ARG_OF_PERICENTER = 255.2787
MEAN_ANOMALY   = 128.6004

EPHEMERIS_TYPE = 0
CLASSIFICATION_TYPE = U
NORAD_CAT_ID   = 67997
ELEMENT_SET_NO = 999
REV_AT_EPOCH   = 532
BSTAR          = .70255524E-3
MEAN_MOTION_DOT = .41021E-3
MEAN_MOTION_DDOT = 0

CCSDS_OMM_VERS = 2.0
CREATION_DATE  = 
ORIGINATOR     = 

OBJECT_NAME    = STARLINK-36988
OBJECT_ID      = 2026-039N
CENTER_NAME    = EARTH
REF_FRAME      = TEME
TIME_SYSTEM    = UTC
MEAN_ELEMENT_THEORY = SGP/SGP4

EPOCH          = 2026-03-24T22:00:00.999936
MEAN_MOTION    = 15.50534439
ECCENTRICITY   = .00014258
INCLINATION    = 42.9999
RA_OF_ASC_NODE = 323.5646
ARG_OF_PERICENTER = 280.7008
MEAN_ANOMALY   = 126.9185

EPHEMERIS_TYPE = 0
CLASSIFICATION_TYPE = U
NORAD_CAT_ID   = 67998
ELEMENT_SET_NO = 999
REV_AT_EPOCH   = 532
BSTAR          = .70034815E-3
MEAN_MOTION_DOT = .40894E-3
MEAN_MOTION_DDOT = 0

CCSDS_OMM_VERS = 2.0
CREATION_DATE  = 
ORIGINATOR     = 

OBJECT_NAME    = STARLINK-36926
OBJECT_ID      = 2026-039P
CENTER_NAME    = EARTH
REF_FRAME      = TEME
TIME_SYSTEM    = UTC
MEAN_ELEMENT_THEORY = SGP/SGP4

EPOCH          = 2026-03-24T22:00:00.999936
MEAN_MOTION    = 15.50531545
ECCENTRICITY   = .000152
INCLINATION    = 43.0001
RA_OF_ASC_NODE = 323.5998
ARG_OF_PERICENTER = 258.3158
MEAN_ANOMALY   = 134.8812

EPHEMERIS_TYPE = 0
CLASSIFICATION_TYPE = U
NORAD_CAT_ID   = 67999
ELEMENT_SET_NO = 999
REV_AT_EPOCH   = 532
BSTAR          = .95520039E-3
MEAN_MOTION_DOT = .56002E-3
MEAN_MOTION_DDOT = 0

CCSDS_OMM_VERS = 2.0
CREATION_DATE  = 
ORIGINATOR     = 

OBJECT_NAME    = STARLINK-36931
OBJECT_ID      = 2026-039Q
CENTER_NAME    = EARTH
REF_FRAME      = TEME
TIME_SYSTEM    = UTC
MEAN_ELEMENT_THEORY = SGP/SGP4

EPOCH          = 2026-03-24T22:00:00.999936
MEAN_MOTION    = 15.50531704
ECCENTRICITY   = .00018013
INCLINATION    = 42.9999
RA_OF_ASC_NODE = 323.3174
ARG_OF_PERICENTER = 279.3761
MEAN_ANOMALY   = 227.8425

EPHEMERIS_TYPE = 0
CLASSIFICATION_TYPE = U
NORAD_CAT_ID   = 68000
ELEMENT_SET_NO = 999
REV_AT_EPOCH   = 532
BSTAR          = .70831417E-3
MEAN_MOTION_DOT = .41362E-3
MEAN_MOTION_DDOT = 0

CCSDS_OMM_VERS = 2.0
CREATION_DATE  = 
ORIGINATOR     = 

OBJECT_NAME    = STARLINK-36903
OBJECT_ID      = 2026-039R
CENTER_NAME    = EARTH
REF_FRAME      = TEME
TIME_SYSTEM    = UTC
MEAN_ELEMENT_THEORY = SGP/SGP4

EPOCH          = 2026-03-24T22:00:00.999936
MEAN_MOTION    = 15.42836731
ECCENTRICITY   = .00016068
INCLINATION    = 42.9998
RA_OF_ASC_NODE = 323.6497
ARG_OF_PERICENTER = 256.5798
MEAN_ANOMALY   = 116.1396

EPHEMERIS_TYPE = 0
CLASSIFICATION_TYPE = U
NORAD_CAT_ID   = 68001
ELEMENT_SET_NO = 999
REV_AT_EPOCH   = 532
BSTAR          = -.48154416E-1
MEAN_MOTION_DOT = -.1933249E-1
MEAN_MOTION_DDOT = 0

CCSDS_OMM_VERS = 2.0
CREATION_DATE  = 
ORIGINATOR     = 

OBJECT_NAME    = STARLINK-36898
OBJECT_ID      = 2026-039S
CENTER_NAME    = EARTH
REF_FRAME      = TEME
TIME_SYSTEM    = UTC
MEAN_ELEMENT_THEORY = SGP/SGP4

EPOCH          = 2026-03-24T22:00:00.999936
MEAN_MOTION    = 15.41313005
ECCENTRICITY   = .00015782
INCLINATION    = 43.0002
RA_OF_ASC_NODE = 323.4517
ARG_OF_PERICENTER = 268.5819
MEAN_ANOMALY   = 184.3285

EPHEMERIS_TYPE = 0
CLASSIFICATION_TYPE = U
NORAD_CAT_ID   = 68002
ELEMENT_SET_NO = 999
REV_AT_EPOCH   = 532
BSTAR          = -.48668034E-1
MEAN_MOTION_DOT = -.1863555E-1
MEAN_MOTION_DDOT = 0

CCSDS_OMM_VERS = 2.0
CREATION_DATE  = 
ORIGINATOR     = 

OBJECT_NAME    = STARLINK-36862
OBJECT_ID      = 2026-039T
CENTER_NAME    = EARTH
REF_FRAME      = TEME
TIME_SYSTEM    = UTC
MEAN_ELEMENT_THEORY = SGP/SGP4

EPOCH          = 2026-03-24T22:00:00.999936
MEAN_MOTION    = 15.39912024
ECCENTRICITY   = .00017932
INCLINATION    = 43.0002
RA_OF_ASC_NODE = 323.6015
ARG_OF_PERICENTER = 257.5047
MEAN_ANOMALY   = 134.2783

EPHEMERIS_TYPE = 0
CLASSIFICATION_TYPE = U
NORAD_CAT_ID   = 68003
ELEMENT_SET_NO = 999
REV_AT_EPOCH   = 532
BSTAR          = -.51504405E-1
MEAN_MOTION_DOT = -.1880071E-1
MEAN_MOTION_DDOT = 0

